[{"OBJECT_NAME":"STARLINK-1928","OBJECT_ID":"2020-074V","EPOCH":"2026-03-09T20:00:59.714208","MEAN_MOTION":15.66832435,"ECCENTRICITY":0.00029858,"INCLINATION":53.0444,"RA_OF_ASC_NODE":283.9219,"ARG_OF_PERICENTER":49.9674,"MEAN_ANOMALY":310.1603,"EPHEMERIS_TYPE":0,"CLASSIFICATION_TYPE":"U","NORAD_CAT_ID":46758,"ELEMENT_SET_NO":999,"REV_AT_EPOCH":29722,"BSTAR":0.00084797798,"MEAN_MOTION_DOT":0.00091787,"MEAN_MOTION_DDOT":0},{"OBJECT_NAME":"STARLINK-11250 [DTC]","OBJECT_ID":"2024-154H","EPOCH":"2026-03-09T10:29:51.674496","MEAN_MOTION":15.6971087,"ECCENTRICITY":0.00012644,"INCLINATION":53.1594,"RA_OF_ASC_NODE":132.5901,"ARG_OF_PERICENTER":85.6071,"MEAN_ANOMALY":274.5092,"EPHEMERIS_TYPE":0,"CLASSIFICATION_TYPE":"U","NORAD_CAT_ID":60910,"ELEMENT_SET_NO":999,"REV_AT_EPOCH":8847,"BSTAR":1.3784388e-5,"MEAN_MOTION_DOT":1.081e-5,"MEAN_MOTION_DDOT":0}]
