STARLINK-1928           
1 46758U 20074V   26068.83402447  .00091787  00000+0  84798-3 0  9997
2 46758  53.0444 283.9219 0002986  49.9674 310.1603 15.66832435297229
STARLINK-11250 [DTC]    
1 60910U 24154H   26068.43740364  .00001081  00000+0  13784-4 0  9991
2 60910  53.1594 132.5901 0001264  85.6071 274.5092 15.69710870 88476
